<?xml version="1.0" encoding="UTF-8"?><osm version="0.6" generator="Overpass API 0.7.57.1 74a55df1">
<note>The data included in this document is from www.openstreetmap.org. The data is made available under ODbL.</note>
<meta osm_base="2022-04-07T10:14:10Z"/>

  <node id="264199878" lat="35.3159742" lon="139.1180116"/>
  <node id="264199896" lat="35.3158636" lon="139.1187883"/>
  <node id="264199897" lat="35.3176905" lon="139.1094212"/>
  <node id="264199898" lat="35.3171077" lon="139.1119135"/>
  <node id="264199900" lat="35.3164350" lon="139.1148653"/>
  <node id="264199902" lat="35.3162010" lon="139.1164848"/>
  <node id="264199903" lat="35.3178078" lon="139.1089253"/>
  <node id="264199907" lat="35.2698670" lon="139.1573109"/>
  <node id="264199909" lat="35.2708923" lon="139.1572441"/>
  <node id="264199910" lat="35.2707775" lon="139.1572379"/>
  <node id="264199911" lat="35.2716282" lon="139.1574980"/>
  <node id="264199912" lat="35.2712270" lon="139.1573110"/>
  <node id="264199914" lat="35.2722706" lon="139.1579277"/>
  <node id="264199916" lat="35.2727149" lon="139.1580520"/>
  <node id="264199917" lat="35.2724692" lon="139.1580045"/>
  <node id="264199919" lat="35.2732476" lon="139.1579782"/>
  <node id="264199920" lat="35.2729227" lon="139.1580543"/>
  <node id="264199921" lat="35.2738552" lon="139.1575635"/>
  <node id="264199922" lat="35.2736638" lon="139.1577408"/>
  <node id="264199925" lat="35.2740159" lon="139.1573744"/>
  <node id="264199928" lat="35.2892168" lon="139.1376578"/>
  <node id="264199932" lat="35.2921442" lon="139.1341430"/>
  <node id="264199941" lat="35.2914910" lon="139.1349130"/>
  <node id="264199942" lat="35.3184822" lon="139.1060037"/>
  <node id="264199945" lat="35.2989078" lon="139.1287294"/>
  <node id="264199949" lat="35.2856518" lon="139.1420922"/>
  <node id="264199950" lat="35.2822742" lon="139.1460686"/>
  <node id="264199953" lat="35.2927040" lon="139.1335079"/>
  <node id="264199956" lat="35.2761157" lon="139.1532715"/>
  <node id="264199957" lat="35.2757920" lon="139.1544624"/>
  <node id="264199959" lat="35.2756865" lon="139.1547204">
    <tag k="railway" v="switch"/>
  </node>
  <node id="264199962" lat="35.2761920" lon="139.1530286">
    <tag k="railway" v="crossing"/>
  </node>
  <node id="264199964" lat="35.2764322" lon="139.1525194"/>
  <node id="264199986" lat="35.2765801" lon="139.1522932"/>
  <node id="264199987" lat="35.2766722" lon="139.1521533"/>
  <node id="264199989" lat="35.2928268" lon="139.1333794">
    <tag k="railway" v="crossing"/>
  </node>
  <node id="264199990" lat="35.2929282" lon="139.1332800"/>
  <node id="264199992" lat="35.2937767" lon="139.1325801">
    <tag k="railway" v="level_crossing"/>
  </node>
  <node id="264199997" lat="35.3022640" lon="139.1259280"/>
  <node id="264199998" lat="35.3020758" lon="139.1260171"/>
  <node id="264199999" lat="35.3025569" lon="139.1258443"/>
  <node id="264200000" lat="35.3024007" lon="139.1258812"/>
  <node id="264200001" lat="35.2970793" lon="139.1301632"/>
  <node id="264200002" lat="35.2952898" lon="139.1314360"/>
  <node id="264200007" lat="35.3077023" lon="139.1256872"/>
  <node id="264200009" lat="35.3096039" lon="139.1254306"/>
  <node id="264200010" lat="35.3090786" lon="139.1255406"/>
  <node id="264200011" lat="35.3034759" lon="139.1257541"/>
  <node id="264200013" lat="35.3027883" lon="139.1258208"/>
  <node id="264200016" lat="35.3060732" lon="139.1256922"/>
  <node id="264200021" lat="35.3153186" lon="139.1213699"/>
  <node id="264200022" lat="35.3154970" lon="139.1209345"/>
  <node id="264200024" lat="35.3148057" lon="139.1221040"/>
  <node id="264200025" lat="35.3150570" lon="139.1218015"/>
  <node id="264200026" lat="35.3145089" lon="139.1224050"/>
  <node id="264200029" lat="35.3102138" lon="139.1251519"/>
  <node id="264200035" lat="35.2573469" lon="139.1570074">
    <tag k="source" v="KSJ2"/>
  </node>
  <node id="264200036" lat="35.2579868" lon="139.1574802">
    <tag k="source" v="KSJ2"/>
  </node>
  <node id="264200037" lat="35.2566783" lon="139.1565920">
    <tag k="source" v="KSJ2"/>
  </node>
  <node id="264200039" lat="35.3156088" lon="139.1205348"/>
  <node id="264200043" lat="35.2588891" lon="139.1583775">
    <tag k="source" v="KSJ2"/>
  </node>
  <node id="264200044" lat="35.2587871" lon="139.1582871">
    <tag k="source" v="KSJ2"/>
  </node>
  <node id="264200045" lat="35.2586752" lon="139.1581773">
    <tag k="source" v="KSJ2"/>
  </node>
  <node id="264200046" lat="35.2584997" lon="139.1579716">
    <tag k="source" v="KSJ2"/>
  </node>
  <node id="264200048" lat="35.2582731" lon="139.1577280">
    <tag k="source" v="KSJ2"/>
  </node>
  <node id="264200082" lat="35.2632976" lon="139.1582426"/>
  <node id="264200126" lat="35.2619293" lon="139.1586532"/>
  <node id="264200127" lat="35.2608508" lon="139.1589194">
    <tag k="railway" v="level_crossing"/>
    <tag k="source" v="KSJ2"/>
  </node>
  <node id="264200128" lat="35.2604249" lon="139.1590649"/>
  <node id="264200130" lat="35.2601180" lon="139.1591277"/>
  <node id="264200131" lat="35.2598778" lon="139.1590855"/>
  <node id="264200135" lat="35.2638591" lon="139.1580720"/>
  <node id="264200137" lat="35.2652694" lon="139.1576912"/>
  <node id="264200138" lat="35.2649645" lon="139.1577383"/>
  <node id="264200141" lat="35.2655169" lon="139.1576630"/>
  <node id="264200142" lat="35.2681158" lon="139.1574588"/>
  <node id="390307817" lat="35.2792467" lon="139.1494296">
    <tag k="railway" v="level_crossing"/>
  </node>
  <node id="390307826" lat="35.2758828" lon="139.1542081">
    <tag k="crossing:barrier" v="double_half"/>
    <tag k="crossing:bell" v="yes"/>
    <tag k="crossing:light" v="yes"/>
    <tag k="crossing:supervision" v="no"/>
    <tag k="railway" v="level_crossing"/>
  </node>
  <node id="1497988786" lat="35.3085661" lon="139.1256154">
    <tag k="railway" v="level_crossing"/>
    <tag k="source" v="Bing"/>
  </node>
  <node id="1497990542" lat="35.3149096" lon="139.1219962">
    <tag k="railway" v="level_crossing"/>
    <tag k="source" v="Bing"/>
  </node>
  <node id="2080903907" lat="35.2870172" lon="139.1403250"/>
  <node id="2080903908" lat="35.2863877" lon="139.1410534"/>
  <node id="2153151119" lat="35.3157039" lon="139.1200205"/>
  <node id="2500269826" lat="35.2767955" lon="139.1520199">
    <tag k="railway" v="crossing"/>
    <tag k="source" v="Bing"/>
  </node>
  <node id="3252478287" lat="35.3158330" lon="139.1189807">
    <tag k="railway" v="level_crossing"/>
  </node>
  <node id="3252478296" lat="35.3160463" lon="139.1175118">
    <tag k="railway" v="level_crossing"/>
    <tag k="source" v="Bing"/>
  </node>
  <node id="3252478330" lat="35.3178187" lon="139.1088801">
    <tag k="railway" v="level_crossing"/>
    <tag k="source" v="Bing"/>
  </node>
  <node id="3252478358" lat="35.3187810" lon="139.1048138">
    <tag k="railway" v="level_crossing"/>
  </node>
  <node id="3252845399" lat="35.3164891" lon="139.1145270">
    <tag k="railway" v="crossing"/>
    <tag k="source" v="Bing"/>
  </node>
  <node id="3252845401" lat="35.3166357" lon="139.1139148">
    <tag k="railway" v="level_crossing"/>
    <tag k="source" v="Bing"/>
  </node>
  <node id="3254277788" lat="35.3041044" lon="139.1256945">
    <tag k="railway" v="level_crossing"/>
    <tag k="source" v="Bing"/>
  </node>
  <node id="3254277820" lat="35.3046878" lon="139.1256799"/>
  <node id="3254277938" lat="35.3070018" lon="139.1256966">
    <tag k="railway" v="level_crossing"/>
    <tag k="source" v="Bing"/>
  </node>
  <node id="3254278064" lat="35.3080633" lon="139.1256698"/>
  <node id="3254278140" lat="35.3093531" lon="139.1254950"/>
  <node id="3254278400" lat="35.3098931" lon="139.1253272"/>
  <node id="3254278510" lat="35.3110841" lon="139.1246257">
    <tag k="railway" v="level_crossing"/>
    <tag k="source" v="Bing"/>
  </node>
  <node id="3254278735" lat="35.3128148" lon="139.1235029">
    <tag k="railway" v="level_crossing"/>
    <tag k="source" v="Bing"/>
  </node>
  <node id="3255594344" lat="35.2957284" lon="139.1311495">
    <tag k="railway" v="level_crossing"/>
    <tag k="source" v="Bing"/>
  </node>
  <node id="3255596085" lat="35.2991961" lon="139.1284783">
    <tag k="railway" v="level_crossing"/>
    <tag k="source" v="Bing"/>
  </node>
  <node id="3255596249" lat="35.3017851" lon="139.1262425">
    <tag k="railway" v="level_crossing"/>
    <tag k="source" v="Bing"/>
  </node>
  <node id="3257016503" lat="35.2982659" lon="139.1292720">
    <tag k="railway" v="crossing"/>
    <tag k="source" v="Bing"/>
  </node>
  <node id="3262293452" lat="35.2835857" lon="139.1445328">
    <tag k="railway" v="level_crossing"/>
    <tag k="source" v="Bing"/>
  </node>
  <node id="3262293611" lat="35.2877822" lon="139.1393874">
    <tag k="railway" v="level_crossing"/>
    <tag k="source" v="Bing"/>
  </node>
  <node id="3262293639" lat="35.2881893" lon="139.1388974">
    <tag k="railway" v="level_crossing"/>
  </node>
  <node id="3262293926" lat="35.2930665" lon="139.1331458"/>
  <node id="3267729863" lat="35.2719148" lon="139.1576917">
    <tag k="railway" v="level_crossing"/>
    <tag k="source" v="Bing"/>
  </node>
  <node id="3267729875" lat="35.2742172" lon="139.1570846">
    <tag k="railway" v="level_crossing"/>
    <tag k="source" v="Bing"/>
  </node>
  <node id="3267729971" lat="35.2779447" lon="139.1507981">
    <tag k="railway" v="crossing"/>
    <tag k="source" v="Bing"/>
  </node>
  <node id="3267730063" lat="35.2801774" lon="139.1484555">
    <tag k="railway" v="crossing"/>
    <tag k="source" v="Bing"/>
  </node>
  <node id="3268307239" lat="35.2684045" lon="139.1574291">
    <tag k="railway" v="level_crossing"/>
    <tag k="source" v="Bing"/>
  </node>
  <node id="3268311200" lat="35.2701982" lon="139.1572843">
    <tag k="railway" v="crossing"/>
    <tag k="source" v="Bing"/>
  </node>
  <node id="3268311228" lat="35.2710446" lon="139.1572628"/>
  <node id="3268311239" lat="35.2714195" lon="139.1573821"/>
  <node id="3269403438" lat="35.2620905" lon="139.1586213">
    <tag k="railway" v="level_crossing"/>
    <tag k="source" v="Bing"/>
  </node>
  <node id="3269404022" lat="35.2645158" lon="139.1578694">
    <tag k="railway" v="level_crossing"/>
    <tag k="source" v="Bing"/>
  </node>
  <node id="3269490807" lat="35.2596936" lon="139.1589962">
    <tag k="railway" v="level_crossing"/>
    <tag k="source" v="Bing"/>
  </node>
  <node id="3710443216" lat="35.2602637" lon="139.1591147"/>
  <node id="3710443217" lat="35.2606363" lon="139.1590007"/>
  <node id="4844852583" lat="35.3173759" lon="139.1107700">
    <tag k="railway" v="level_crossing"/>
  </node>
  <node id="5455129184" lat="35.2745582" lon="139.1565367"/>
  <node id="5455129185" lat="35.2747164" lon="139.1563230">
    <tag k="railway" v="level_crossing"/>
    <tag k="source" v="Bing"/>
  </node>
  <node id="5455129187" lat="35.2750741" lon="139.1558402"/>
  <node id="5455129188" lat="35.2752186" lon="139.1556336">
    <tag k="name" v="五百羅漢"/>
    <tag k="name:en" v="Gohyakurakan"/>
    <tag k="name:ja" v="五百羅漢"/>
    <tag k="name:ja_rm" v="Gohyakurakan"/>
    <tag k="name:ko" v="고햐쿠라칸"/>
    <tag k="note" v="National-Land Numerical Information (Railway) 2007, MLIT Japan"/>
    <tag k="public_transport" v="stop_position"/>
    <tag k="railway" v="stop"/>
    <tag k="ref" v="ID04"/>
    <tag k="source" v="KSJ2"/>
    <tag k="train" v="yes"/>
    <tag k="wikidata" v="Q5577610"/>
    <tag k="wikipedia" v="ja:五百羅漢駅"/>
  </node>
  <node id="5455129189" lat="35.2753795" lon="139.1553694"/>
  <node id="5455129190" lat="35.2755306" lon="139.1550623"/>
  <node id="6610667005" lat="35.3160870" lon="139.1172029"/>
  <node id="6610667007" lat="35.3157533" lon="139.1195418"/>
  <node id="6610667413" lat="35.3180193" lon="139.1080255"/>
  <node id="6610667414" lat="35.3180492" lon="139.1078924"/>
  <node id="6610667704" lat="35.3188156" lon="139.1046933"/>
  <node id="6610667741" lat="35.3187140" lon="139.1050313"/>
  <node id="6610667742" lat="35.3189596" lon="139.1041915"/>
  <node id="6611341222" lat="35.3011922" lon="139.1267502"/>
  <node id="6611341223" lat="35.3001739" lon="139.1276336"/>
  <node id="6611452797" lat="35.2860132" lon="139.1415346"/>
  <node id="6611453704" lat="35.2907263" lon="139.1358362">
    <tag k="railway" v="level_crossing"/>
    <tag k="source" v="Bing"/>
  </node>
  <node id="6611455218" lat="35.2918292" lon="139.1345139"/>
  <node id="6611455219" lat="35.2924280" lon="139.1338138"/>
  <node id="6611455220" lat="35.2934055" lon="139.1328590"/>
  <node id="6632844731" lat="35.2731754" lon="139.1580029"/>
  <node id="6632846754" lat="35.2730748" lon="139.1580261"/>
  <node id="6632846755" lat="35.2734635" lon="139.1578746"/>
  <node id="6632847789" lat="35.2754660" lon="139.1552165"/>
  <node id="6632847792" lat="35.2759423" lon="139.1539760"/>
  <node id="6632847793" lat="35.2760025" lon="139.1537131"/>
  <node id="6632847794" lat="35.2763058" lon="139.1527623"/>
  <node id="6632848738" lat="35.2809095" lon="139.1476768"/>
  <node id="6641188240" lat="35.2679531" lon="139.1574715"/>
  <node id="6646916434" lat="35.2568798" lon="139.1567186"/>
  <node id="6646916442" lat="35.2581435" lon="139.1576077"/>
  <node id="6646916443" lat="35.2591127" lon="139.1585626"/>
  <node id="6646916444" lat="35.2600095" lon="139.1591151"/>
  <node id="7277199790" lat="35.2564587" lon="139.1564383">
    <tag k="name" v="小田原"/>
    <tag k="operator" v="伊豆箱根鉄道"/>
    <tag k="public_transport" v="stop_position"/>
    <tag k="source" v="GSImaps/ort"/>
    <tag k="train" v="yes"/>
  </node>
  <node id="8204823891" lat="35.2800944" lon="139.1485438">
    <tag k="name" v="穴部"/>
    <tag k="name:en" v="Anabe"/>
    <tag k="name:ja" v="穴部"/>
    <tag k="name:ja_rm" v="Anabe"/>
    <tag k="name:ko" v="아나베"/>
    <tag k="note" v="National-Land Numerical Information (Railway) 2007, MLIT Japan"/>
    <tag k="public_transport" v="stop_position"/>
    <tag k="railway" v="stop"/>
    <tag k="ref" v="ID05"/>
    <tag k="source" v="KSJ2"/>
    <tag k="train" v="yes"/>
    <tag k="wikidata" v="Q4750577"/>
    <tag k="wikipedia" v="ja:穴部駅"/>
  </node>
  <node id="8204823892" lat="35.2880116" lon="139.1391119">
    <tag k="name" v="飯田岡"/>
    <tag k="name:en" v="Iidaoka"/>
    <tag k="name:ja" v="飯田岡"/>
    <tag k="name:ja_rm" v="Iidaoka"/>
    <tag k="name:ko" v="이다오카"/>
    <tag k="note" v="National-Land Numerical Information (Railway) 2007, MLIT Japan"/>
    <tag k="public_transport" v="stop_position"/>
    <tag k="railway" v="stop"/>
    <tag k="ref" v="ID06"/>
    <tag k="source" v="KSJ2"/>
    <tag k="train" v="yes"/>
    <tag k="wikidata" v="Q5994936"/>
    <tag k="wikipedia" v="ja:飯田岡駅"/>
  </node>
  <node id="8204823893" lat="35.2990666" lon="139.1285896">
    <tag k="name" v="岩原"/>
    <tag k="name:en" v="Iwahara"/>
    <tag k="name:ja" v="岩原"/>
    <tag k="name:ja_rm" v="Iwahara"/>
    <tag k="name:ko" v="이와하라"/>
    <tag k="note" v="National-Land Numerical Information (Railway) 2007, MLIT Japan"/>
    <tag k="public_transport" v="stop_position"/>
    <tag k="railway" v="stop"/>
    <tag k="ref" v="ID08"/>
    <tag k="source" v="KSJ2"/>
    <tag k="train" v="yes"/>
    <tag k="wikidata" v="Q6100298"/>
    <tag k="wikipedia" v="ja:岩原駅"/>
  </node>
  <node id="8204823894" lat="35.3015315" lon="139.1264592">
    <tag k="name" v="塚原"/>
    <tag k="name:en" v="Tsukahara"/>
    <tag k="name:ja" v="塚原"/>
    <tag k="name:ja_rm" v="Tsukahara"/>
    <tag k="name:ko" v="쓰카하라"/>
    <tag k="note" v="National-Land Numerical Information (Railway) 2007, MLIT Japan"/>
    <tag k="public_transport" v="stop_position"/>
    <tag k="railway" v="stop"/>
    <tag k="ref" v="ID09"/>
    <tag k="source" v="KSJ2"/>
    <tag k="train" v="yes"/>
    <tag k="wikidata" v="Q7850037"/>
    <tag k="wikipedia" v="ja:塚原駅"/>
  </node>
  <node id="8204823895" lat="35.3177745" lon="139.1090664">
    <tag k="alt_name:ko" v="후지필름마에"/>
    <tag k="name" v="富士フイルム前"/>
    <tag k="name:en" v="Fujifilm-mae"/>
    <tag k="name:ja" v="富士フイルム前"/>
    <tag k="name:ja_rm" v="Fujifilm-Mae"/>
    <tag k="name:ko" v="후지필름앞"/>
    <tag k="note" v="National-Land Numerical Information (Railway) 2007, MLIT Japan"/>
    <tag k="note:ja" v="国土数値情報（鉄道データ）平成19年　国土交通省"/>
    <tag k="public_transport" v="stop_position"/>
    <tag k="railway" v="stop"/>
    <tag k="ref" v="ID11"/>
    <tag k="source" v="KSJ2"/>
    <tag k="source_ref" v="http://nlftp.mlit.go.jp/ksj/jpgis/datalist/KsjTmplt-N02-v1_1.html"/>
    <tag k="train" v="yes"/>
    <tag k="wikidata" v="Q5507389"/>
    <tag k="wikipedia" v="ja:富士フイルム前駅"/>
  </node>
  <node id="8204823896" lat="35.2686371" lon="139.1574106">
    <tag k="name" v="井細田"/>
    <tag k="name:en" v="Isaida"/>
    <tag k="name:ja" v="井細田"/>
    <tag k="name:ja_rm" v="Isaida"/>
    <tag k="name:ko" v="이사이다"/>
    <tag k="note" v="National-Land Numerical Information (Railway) 2007, MLIT Japan"/>
    <tag k="public_transport" v="stop_position"/>
    <tag k="railway" v="stop"/>
    <tag k="ref" v="ID03"/>
    <tag k="source" v="KSJ2"/>
    <tag k="train" v="yes"/>
    <tag k="wikidata" v="Q6078639"/>
    <tag k="wikipedia" v="ja:井細田駅"/>
  </node>
  <node id="8204823897" lat="35.2597752" lon="139.1590480"/>
  <node id="8204823898" lat="35.2596224" lon="139.1589495">
    <tag k="name" v="緑町"/>
    <tag k="name:en" v="Midoricho"/>
    <tag k="name:ja" v="緑町"/>
    <tag k="name:ja_rm" v="Midorichō"/>
    <tag k="name:ko" v="미도리초"/>
    <tag k="public_transport" v="stop_position"/>
    <tag k="railway" v="stop"/>
    <tag k="ref" v="ID02"/>
    <tag k="source" v="KSJ2"/>
    <tag k="train" v="yes"/>
    <tag k="wikidata" v="Q11607855"/>
    <tag k="wikipedia" v="ja:緑町駅"/>
  </node>
  <node id="8204823899" lat="35.3159240" lon="139.1183911">
    <tag k="name" v="和田河原"/>
    <tag k="name:en" v="Wadagahara"/>
    <tag k="name:ja" v="和田河原"/>
    <tag k="name:ja_rm" v="Wadagahara"/>
    <tag k="name:ko" v="와다가하라"/>
    <tag k="note" v="National-Land Numerical Information (Railway) 2007, MLIT Japan"/>
    <tag k="note:ja" v="国土数値情報（鉄道データ）平成19年　国土交通省"/>
    <tag k="public_transport" v="stop_position"/>
    <tag k="railway" v="stop"/>
    <tag k="ref" v="ID10"/>
    <tag k="source" v="KSJ2"/>
    <tag k="source_ref" v="http://nlftp.mlit.go.jp/ksj/jpgis/datalist/KsjTmplt-N02-v1_1.html"/>
    <tag k="train" v="yes"/>
    <tag k="wikidata" v="Q254831"/>
    <tag k="wikipedia" v="ja:和田河原駅"/>
  </node>
  <node id="8204823901" lat="35.2923218" lon="139.1339399">
    <tag k="name" v="相模沼田"/>
    <tag k="name:en" v="Sagami-Numata"/>
    <tag k="name:ja" v="相模沼田"/>
    <tag k="name:ja_rm" v="Sagami-Numata"/>
    <tag k="name:ko" v="사가미누마타"/>
    <tag k="note" v="National-Land Numerical Information (Railway) 2007, MLIT Japan"/>
    <tag k="public_transport" v="stop_position"/>
    <tag k="railway" v="stop"/>
    <tag k="ref" v="ID07"/>
    <tag k="source" v="KSJ2"/>
    <tag k="train" v="yes"/>
    <tag k="wikidata" v="Q7398953"/>
    <tag k="wikipedia" v="ja:相模沼田駅"/>
  </node>
  <node id="8204823904" lat="35.3190734" lon="139.1037221">
    <tag k="name" v="大雄山"/>
    <tag k="name:en" v="Daiyuzan"/>
    <tag k="name:ja" v="大雄山"/>
    <tag k="name:ja_kana" v="だいゆうざん"/>
    <tag k="name:ja_rm" v="Daiyūzan"/>
    <tag k="name:ko" v="다이유잔"/>
    <tag k="note" v="National-Land Numerical Information (Railway) 2007, MLIT Japan"/>
    <tag k="note:ja" v="国土数値情報（鉄道データ）平成19年　国土交通省"/>
    <tag k="public_transport" v="stop_position"/>
    <tag k="railway" v="stop"/>
    <tag k="ref" v="ID12"/>
    <tag k="source" v="KSJ2"/>
    <tag k="source_ref" v="http://nlftp.mlit.go.jp/ksj/jpgis/datalist/KsjTmplt-N02-v1_1.html"/>
    <tag k="train" v="yes"/>
    <tag k="wikidata" v="Q5209846"/>
    <tag k="wikipedia" v="ja:大雄山駅"/>
  </node>
  <way id="24355054">
    <nd ref="8204823898"/>
    <nd ref="3269490807"/>
    <nd ref="8204823897"/>
    <nd ref="264200131"/>
    <nd ref="6646916444"/>
    <nd ref="264200130"/>
    <nd ref="3710443216"/>
    <nd ref="264200128"/>
    <nd ref="3710443217"/>
    <nd ref="264200127"/>
    <nd ref="264200126"/>
    <nd ref="3269403438"/>
    <nd ref="264200082"/>
    <nd ref="264200135"/>
    <nd ref="3269404022"/>
    <nd ref="264200138"/>
    <nd ref="264200137"/>
    <nd ref="264200141"/>
    <nd ref="6641188240"/>
    <tag k="electrified" v="contact_line"/>
    <tag k="frequency" v="0"/>
    <tag k="gauge" v="1067"/>
    <tag k="name" v="伊豆箱根鉄道大雄山線"/>
    <tag k="name:en" v="Izuhakone Railway Daiyuzan Line"/>
    <tag k="name:ja" v="伊豆箱根鉄道大雄山線"/>
    <tag k="name:ja_rm" v="Izuhakone Tetsudo Daiyūzan-sen"/>
    <tag k="operator" v="伊豆箱根鉄道"/>
    <tag k="operator:ja" v="伊豆箱根鉄道"/>
    <tag k="railway" v="rail"/>
    <tag k="usage" v="branch"/>
    <tag k="voltage" v="1500"/>
  </way>
  <way id="24355056">
    <nd ref="8204823904"/>
    <nd ref="6610667742"/>
    <nd ref="6610667704"/>
    <nd ref="3252478358"/>
    <nd ref="6610667741"/>
    <tag k="KSJ2:LIN" v="大雄山線"/>
    <tag k="name" v="伊豆箱根鉄道大雄山線"/>
    <tag k="name:en" v="Izuhakone Railway Daiyuzan Line"/>
    <tag k="name:ja" v="伊豆箱根鉄道大雄山線"/>
    <tag k="name:ja_rm" v="Izuhakone Tetsudo Daiyūzan-sen"/>
    <tag k="note" v="National-Land Numerical Information (Railway) 2007, MLIT Japan"/>
    <tag k="note:ja" v="国土数値情報（鉄道データ）平成19年　国土交通省"/>
    <tag k="operator" v="伊豆箱根鉄道"/>
    <tag k="operator:ja" v="伊豆箱根鉄道"/>
    <tag k="railway" v="rail"/>
    <tag k="usage" v="branch"/>
  </way>
  <way id="24355057">
    <nd ref="264200011"/>
    <nd ref="3254277788"/>
    <nd ref="3254277820"/>
    <nd ref="264200016"/>
    <nd ref="3254277938"/>
    <nd ref="264200007"/>
    <nd ref="3254278064"/>
    <nd ref="1497988786"/>
    <nd ref="264200010"/>
    <nd ref="3254278140"/>
    <nd ref="264200009"/>
    <nd ref="3254278400"/>
    <nd ref="264200029"/>
    <nd ref="3254278510"/>
    <nd ref="3254278735"/>
    <nd ref="264200026"/>
    <nd ref="264200024"/>
    <nd ref="1497990542"/>
    <nd ref="264200025"/>
    <nd ref="264200021"/>
    <nd ref="264200022"/>
    <nd ref="264200039"/>
    <nd ref="2153151119"/>
    <nd ref="6610667007"/>
    <tag k="KSJ2:LIN" v="大雄山線"/>
    <tag k="name" v="伊豆箱根鉄道大雄山線"/>
    <tag k="name:en" v="Izuhakone Railway Daiyuzan Line"/>
    <tag k="name:ja" v="伊豆箱根鉄道大雄山線"/>
    <tag k="name:ja_rm" v="Izuhakone Tetsudo Daiyūzan-sen"/>
    <tag k="note" v="National-Land Numerical Information (Railway) 2007, MLIT Japan"/>
    <tag k="note:ja" v="国土数値情報（鉄道データ）平成19年　国土交通省"/>
    <tag k="operator" v="伊豆箱根鉄道"/>
    <tag k="operator:ja" v="伊豆箱根鉄道"/>
    <tag k="railway" v="rail"/>
    <tag k="usage" v="branch"/>
  </way>
  <way id="24355065">
    <nd ref="264200035"/>
    <nd ref="6646916434"/>
    <nd ref="264200037"/>
    <nd ref="7277199790"/>
    <tag k="gauge" v="1067"/>
    <tag k="name" v="伊豆箱根鉄道大雄山線"/>
    <tag k="name:en" v="Izuhakone Railway Daiyuzan Line"/>
    <tag k="name:ja" v="伊豆箱根鉄道大雄山線"/>
    <tag k="name:ja_rm" v="Izuhakone Tetsudo Daiyūzan-sen"/>
    <tag k="operator" v="伊豆箱根鉄道"/>
    <tag k="railway" v="rail"/>
    <tag k="source" v="KSJ2"/>
    <tag k="usage" v="branch"/>
  </way>
  <way id="24355070">
    <nd ref="264199959"/>
    <nd ref="264199957"/>
    <nd ref="390307826"/>
    <nd ref="6632847792"/>
    <nd ref="6632847793"/>
    <nd ref="264199956"/>
    <nd ref="264199962"/>
    <nd ref="6632847794"/>
    <nd ref="264199964"/>
    <nd ref="264199986"/>
    <nd ref="264199987"/>
    <nd ref="2500269826"/>
    <nd ref="3267729971"/>
    <nd ref="390307817"/>
    <nd ref="8204823891"/>
    <tag k="electrified" v="contact_line"/>
    <tag k="frequency" v="0"/>
    <tag k="gauge" v="1067"/>
    <tag k="name" v="伊豆箱根鉄道大雄山線"/>
    <tag k="name:en" v="Izuhakone Railway Daiyuzan Line"/>
    <tag k="name:ja" v="伊豆箱根鉄道大雄山線"/>
    <tag k="name:ja_rm" v="Izuhakone Tetsudo Daiyūzan-sen"/>
    <tag k="note" v="National-Land Numerical Information (Railway) 2007, MLIT Japan"/>
    <tag k="operator" v="伊豆箱根鉄道"/>
    <tag k="operator:ja" v="伊豆箱根鉄道"/>
    <tag k="railway" v="rail"/>
    <tag k="source" v="KSJ2"/>
    <tag k="usage" v="branch"/>
    <tag k="voltage" v="1500"/>
  </way>
  <way id="24355072">
    <nd ref="8204823896"/>
    <nd ref="264199907"/>
    <nd ref="3268311200"/>
    <nd ref="264199910"/>
    <nd ref="264199909"/>
    <nd ref="3268311228"/>
    <nd ref="264199912"/>
    <nd ref="3268311239"/>
    <nd ref="264199911"/>
    <nd ref="3267729863"/>
    <nd ref="264199914"/>
    <nd ref="264199917"/>
    <nd ref="264199916"/>
    <nd ref="264199920"/>
    <nd ref="6632846754"/>
    <nd ref="6632844731"/>
    <tag k="electrified" v="contact_line"/>
    <tag k="frequency" v="0"/>
    <tag k="gauge" v="1067"/>
    <tag k="name" v="伊豆箱根鉄道大雄山線"/>
    <tag k="name:en" v="Izuhakone Railway Daiyuzan Line"/>
    <tag k="name:ja" v="伊豆箱根鉄道大雄山線"/>
    <tag k="name:ja_rm" v="Izuhakone Tetsudo Daiyūzan-sen"/>
    <tag k="note" v="National-Land Numerical Information (Railway) 2007, MLIT Japan"/>
    <tag k="operator" v="伊豆箱根鉄道"/>
    <tag k="operator:ja" v="伊豆箱根鉄道"/>
    <tag k="railway" v="rail"/>
    <tag k="usage" v="branch"/>
    <tag k="voltage" v="1500"/>
  </way>
  <way id="319151072">
    <nd ref="264200013"/>
    <nd ref="264200011"/>
    <tag k="KSJ2:LIN" v="大雄山線"/>
    <tag k="bridge" v="yes"/>
    <tag k="layer" v="1"/>
    <tag k="name" v="伊豆箱根鉄道大雄山線"/>
    <tag k="name:en" v="Izuhakone Railway Daiyuzan Line"/>
    <tag k="name:ja" v="伊豆箱根鉄道大雄山線"/>
    <tag k="name:ja_rm" v="Izuhakone Tetsudo Daiyūzan-sen"/>
    <tag k="note" v="National-Land Numerical Information (Railway) 2007, MLIT Japan"/>
    <tag k="note:ja" v="国土数値情報（鉄道データ）平成19年　国土交通省"/>
    <tag k="operator" v="伊豆箱根鉄道"/>
    <tag k="operator:ja" v="伊豆箱根鉄道"/>
    <tag k="railway" v="rail"/>
    <tag k="source" v="KSJ2"/>
    <tag k="source_ref" v="http://nlftp.mlit.go.jp/ksj/jpgis/datalist/KsjTmplt-N02-v1_1.html"/>
    <tag k="usage" v="branch"/>
  </way>
  <way id="704015089">
    <nd ref="6610667413"/>
    <nd ref="6610667414"/>
    <tag k="KSJ2:LIN" v="大雄山線"/>
    <tag k="bridge" v="yes"/>
    <tag k="name" v="伊豆箱根鉄道大雄山線"/>
    <tag k="name:en" v="Izuhakone Railway Daiyuzan Line"/>
    <tag k="name:ja" v="伊豆箱根鉄道大雄山線"/>
    <tag k="name:ja_rm" v="Izuhakone Tetsudo Daiyūzan-sen"/>
    <tag k="note" v="National-Land Numerical Information (Railway) 2007, MLIT Japan"/>
    <tag k="note:ja" v="国土数値情報（鉄道データ）平成19年　国土交通省"/>
    <tag k="operator" v="伊豆箱根鉄道"/>
    <tag k="operator:ja" v="伊豆箱根鉄道"/>
    <tag k="railway" v="rail"/>
    <tag k="usage" v="branch"/>
  </way>
  <way id="705902866">
    <nd ref="6632844731"/>
    <nd ref="264199919"/>
    <tag k="bridge" v="yes"/>
    <tag k="electrified" v="contact_line"/>
    <tag k="frequency" v="0"/>
    <tag k="gauge" v="1067"/>
    <tag k="name" v="伊豆箱根鉄道大雄山線"/>
    <tag k="name:en" v="Izuhakone Railway Daiyuzan Line"/>
    <tag k="name:ja" v="伊豆箱根鉄道大雄山線"/>
    <tag k="name:ja_rm" v="Izuhakone Tetsudo Daiyūzan-sen"/>
    <tag k="note" v="National-Land Numerical Information (Railway) 2007, MLIT Japan"/>
    <tag k="operator" v="伊豆箱根鉄道"/>
    <tag k="operator:ja" v="伊豆箱根鉄道"/>
    <tag k="railway" v="rail"/>
    <tag k="source" v="KSJ2"/>
    <tag k="usage" v="branch"/>
    <tag k="voltage" v="1500"/>
  </way>
  <way id="706731828">
    <nd ref="6641188240"/>
    <nd ref="264200142"/>
    <tag k="bridge" v="yes"/>
    <tag k="electrified" v="contact_line"/>
    <tag k="frequency" v="0"/>
    <tag k="gauge" v="1067"/>
    <tag k="name" v="伊豆箱根鉄道大雄山線"/>
    <tag k="name:en" v="Izuhakone Railway Daiyuzan Line"/>
    <tag k="name:ja" v="伊豆箱根鉄道大雄山線"/>
    <tag k="name:ja_rm" v="Izuhakone Tetsudo Daiyūzan-sen"/>
    <tag k="note" v="National-Land Numerical Information (Railway) 2007, MLIT Japan"/>
    <tag k="operator" v="伊豆箱根鉄道"/>
    <tag k="operator:ja" v="伊豆箱根鉄道"/>
    <tag k="railway" v="rail"/>
    <tag k="usage" v="branch"/>
    <tag k="voltage" v="1500"/>
  </way>
  <way id="882268334">
    <nd ref="264200035"/>
    <nd ref="264200036"/>
    <nd ref="6646916442"/>
    <nd ref="264200048"/>
    <nd ref="264200046"/>
    <nd ref="264200045"/>
    <nd ref="264200044"/>
    <nd ref="264200043"/>
    <nd ref="6646916443"/>
    <nd ref="8204823898"/>
    <tag k="electrified" v="contact_line"/>
    <tag k="frequency" v="0"/>
    <tag k="gauge" v="1067"/>
    <tag k="name" v="伊豆箱根鉄道大雄山線"/>
    <tag k="name:en" v="Izuhakone Railway Daiyuzan Line"/>
    <tag k="name:ja" v="伊豆箱根鉄道大雄山線"/>
    <tag k="name:ja_rm" v="Izuhakone Tetsudo Daiyūzan-sen"/>
    <tag k="operator" v="伊豆箱根鉄道"/>
    <tag k="operator:ja" v="伊豆箱根鉄道"/>
    <tag k="railway" v="rail"/>
    <tag k="usage" v="branch"/>
    <tag k="voltage" v="1500"/>
  </way>
  <way id="882268335">
    <nd ref="264200142"/>
    <nd ref="3268307239"/>
    <nd ref="8204823896"/>
    <tag k="electrified" v="contact_line"/>
    <tag k="frequency" v="0"/>
    <tag k="gauge" v="1067"/>
    <tag k="name" v="伊豆箱根鉄道大雄山線"/>
    <tag k="name:en" v="Izuhakone Railway Daiyuzan Line"/>
    <tag k="name:ja" v="伊豆箱根鉄道大雄山線"/>
    <tag k="name:ja_rm" v="Izuhakone Tetsudo Daiyūzan-sen"/>
    <tag k="note" v="National-Land Numerical Information (Railway) 2007, MLIT Japan"/>
    <tag k="operator" v="伊豆箱根鉄道"/>
    <tag k="operator:ja" v="伊豆箱根鉄道"/>
    <tag k="railway" v="rail"/>
    <tag k="usage" v="branch"/>
    <tag k="voltage" v="1500"/>
  </way>
  <way id="882268336">
    <nd ref="8204823891"/>
    <nd ref="3267730063"/>
    <nd ref="6632848738"/>
    <nd ref="264199950"/>
    <nd ref="3262293452"/>
    <nd ref="264199949"/>
    <nd ref="6611452797"/>
    <nd ref="2080903908"/>
    <nd ref="2080903907"/>
    <nd ref="3262293611"/>
    <nd ref="8204823892"/>
    <tag k="electrified" v="contact_line"/>
    <tag k="frequency" v="0"/>
    <tag k="gauge" v="1067"/>
    <tag k="name" v="伊豆箱根鉄道大雄山線"/>
    <tag k="name:en" v="Izuhakone Railway Daiyuzan Line"/>
    <tag k="name:ja" v="伊豆箱根鉄道大雄山線"/>
    <tag k="name:ja_rm" v="Izuhakone Tetsudo Daiyūzan-sen"/>
    <tag k="note" v="National-Land Numerical Information (Railway) 2007, MLIT Japan"/>
    <tag k="operator" v="伊豆箱根鉄道"/>
    <tag k="operator:ja" v="伊豆箱根鉄道"/>
    <tag k="railway" v="rail"/>
    <tag k="source" v="KSJ2"/>
    <tag k="usage" v="branch"/>
    <tag k="voltage" v="1500"/>
  </way>
  <way id="882268337">
    <nd ref="8204823892"/>
    <nd ref="3262293639"/>
    <nd ref="264199928"/>
    <nd ref="6611453704"/>
    <nd ref="264199941"/>
    <nd ref="6611455218"/>
    <tag k="electrified" v="contact_line"/>
    <tag k="frequency" v="0"/>
    <tag k="gauge" v="1067"/>
    <tag k="name" v="伊豆箱根鉄道大雄山線"/>
    <tag k="name:en" v="Izuhakone Railway Daiyuzan Line"/>
    <tag k="name:ja" v="伊豆箱根鉄道大雄山線"/>
    <tag k="name:ja_rm" v="Izuhakone Tetsudo Daiyūzan-sen"/>
    <tag k="note" v="National-Land Numerical Information (Railway) 2007, MLIT Japan"/>
    <tag k="operator" v="伊豆箱根鉄道"/>
    <tag k="operator:ja" v="伊豆箱根鉄道"/>
    <tag k="railway" v="rail"/>
    <tag k="source" v="KSJ2"/>
    <tag k="usage" v="branch"/>
    <tag k="voltage" v="1500"/>
  </way>
  <way id="882268338">
    <nd ref="8204823893"/>
    <nd ref="3255596085"/>
    <nd ref="6611341223"/>
    <nd ref="6611341222"/>
    <nd ref="8204823894"/>
    <tag k="electrified" v="contact_line"/>
    <tag k="frequency" v="0"/>
    <tag k="gauge" v="1067"/>
    <tag k="name" v="伊豆箱根鉄道大雄山線"/>
    <tag k="name:en" v="Izuhakone Railway Daiyuzan Line"/>
    <tag k="name:ja" v="伊豆箱根鉄道大雄山線"/>
    <tag k="name:ja_rm" v="Izuhakone Tetsudo Daiyūzan-sen"/>
    <tag k="note" v="National-Land Numerical Information (Railway) 2007, MLIT Japan"/>
    <tag k="operator" v="伊豆箱根鉄道"/>
    <tag k="operator:ja" v="伊豆箱根鉄道"/>
    <tag k="railway" v="rail"/>
    <tag k="source" v="KSJ2"/>
    <tag k="usage" v="branch"/>
    <tag k="voltage" v="1500"/>
  </way>
  <way id="882268339">
    <nd ref="8204823894"/>
    <nd ref="3255596249"/>
    <nd ref="264199998"/>
    <nd ref="264199997"/>
    <nd ref="264200000"/>
    <nd ref="264199999"/>
    <nd ref="264200013"/>
    <tag k="electrified" v="contact_line"/>
    <tag k="frequency" v="0"/>
    <tag k="gauge" v="1067"/>
    <tag k="name" v="伊豆箱根鉄道大雄山線"/>
    <tag k="name:en" v="Izuhakone Railway Daiyuzan Line"/>
    <tag k="name:ja" v="伊豆箱根鉄道大雄山線"/>
    <tag k="name:ja_rm" v="Izuhakone Tetsudo Daiyūzan-sen"/>
    <tag k="note" v="National-Land Numerical Information (Railway) 2007, MLIT Japan"/>
    <tag k="operator" v="伊豆箱根鉄道"/>
    <tag k="operator:ja" v="伊豆箱根鉄道"/>
    <tag k="railway" v="rail"/>
    <tag k="source" v="KSJ2"/>
    <tag k="usage" v="branch"/>
    <tag k="voltage" v="1500"/>
  </way>
  <way id="882268340">
    <nd ref="8204823895"/>
    <nd ref="264199903"/>
    <nd ref="3252478330"/>
    <nd ref="6610667413"/>
    <tag k="KSJ2:LIN" v="大雄山線"/>
    <tag k="name" v="伊豆箱根鉄道大雄山線"/>
    <tag k="name:en" v="Izuhakone Railway Daiyuzan Line"/>
    <tag k="name:ja" v="伊豆箱根鉄道大雄山線"/>
    <tag k="name:ja_rm" v="Izuhakone Tetsudo Daiyūzan-sen"/>
    <tag k="note" v="National-Land Numerical Information (Railway) 2007, MLIT Japan"/>
    <tag k="note:ja" v="国土数値情報（鉄道データ）平成19年　国土交通省"/>
    <tag k="operator" v="伊豆箱根鉄道"/>
    <tag k="operator:ja" v="伊豆箱根鉄道"/>
    <tag k="railway" v="rail"/>
    <tag k="usage" v="branch"/>
  </way>
  <way id="882268341">
    <nd ref="6610667005"/>
    <nd ref="3252478296"/>
    <nd ref="264199878"/>
    <nd ref="8204823899"/>
    <nd ref="264199896"/>
    <nd ref="3252478287"/>
    <nd ref="6610667007"/>
    <tag k="KSJ2:LIN" v="大雄山線"/>
    <tag k="name" v="伊豆箱根鉄道大雄山線"/>
    <tag k="name:en" v="Izuhakone Railway Daiyuzan Line"/>
    <tag k="name:ja" v="伊豆箱根鉄道大雄山線"/>
    <tag k="name:ja_rm" v="Izuhakone Tetsudo Daiyūzan-sen"/>
    <tag k="note" v="National-Land Numerical Information (Railway) 2007, MLIT Japan"/>
    <tag k="note:ja" v="国土数値情報（鉄道データ）平成19年　国土交通省"/>
    <tag k="oneway" v="yes"/>
    <tag k="operator" v="伊豆箱根鉄道"/>
    <tag k="operator:ja" v="伊豆箱根鉄道"/>
    <tag k="railway" v="rail"/>
    <tag k="usage" v="branch"/>
  </way>
  <way id="882268342">
    <nd ref="6610667005"/>
    <nd ref="264199902"/>
    <nd ref="264199900"/>
    <nd ref="3252845399"/>
    <nd ref="3252845401"/>
    <nd ref="264199898"/>
    <nd ref="4844852583"/>
    <nd ref="264199897"/>
    <nd ref="8204823895"/>
    <tag k="KSJ2:LIN" v="大雄山線"/>
    <tag k="name" v="伊豆箱根鉄道大雄山線"/>
    <tag k="name:en" v="Izuhakone Railway Daiyuzan Line"/>
    <tag k="name:ja" v="伊豆箱根鉄道大雄山線"/>
    <tag k="name:ja_rm" v="Izuhakone Tetsudo Daiyūzan-sen"/>
    <tag k="note" v="National-Land Numerical Information (Railway) 2007, MLIT Japan"/>
    <tag k="note:ja" v="国土数値情報（鉄道データ）平成19年　国土交通省"/>
    <tag k="operator" v="伊豆箱根鉄道"/>
    <tag k="operator:ja" v="伊豆箱根鉄道"/>
    <tag k="railway" v="rail"/>
    <tag k="usage" v="branch"/>
  </way>
  <way id="882268343">
    <nd ref="6611455220"/>
    <nd ref="3262293926"/>
    <nd ref="264199990"/>
    <nd ref="264199989"/>
    <nd ref="264199953"/>
    <nd ref="6611455219"/>
    <nd ref="8204823901"/>
    <nd ref="264199932"/>
    <nd ref="6611455218"/>
    <tag k="electrified" v="contact_line"/>
    <tag k="frequency" v="0"/>
    <tag k="gauge" v="1067"/>
    <tag k="name" v="伊豆箱根鉄道大雄山線"/>
    <tag k="name:en" v="Izuhakone Railway Daiyuzan Line"/>
    <tag k="name:ja" v="伊豆箱根鉄道大雄山線"/>
    <tag k="name:ja_rm" v="Izuhakone Tetsudo Daiyūzan-sen"/>
    <tag k="note" v="National-Land Numerical Information (Railway) 2007, MLIT Japan"/>
    <tag k="oneway" v="yes"/>
    <tag k="operator" v="伊豆箱根鉄道"/>
    <tag k="operator:ja" v="伊豆箱根鉄道"/>
    <tag k="railway" v="rail"/>
    <tag k="source" v="KSJ2"/>
    <tag k="usage" v="branch"/>
    <tag k="voltage" v="1500"/>
  </way>
  <way id="882268344">
    <nd ref="6611455220"/>
    <nd ref="264199992"/>
    <nd ref="264200002"/>
    <nd ref="3255594344"/>
    <nd ref="264200001"/>
    <nd ref="3257016503"/>
    <nd ref="264199945"/>
    <nd ref="8204823893"/>
    <tag k="electrified" v="contact_line"/>
    <tag k="frequency" v="0"/>
    <tag k="gauge" v="1067"/>
    <tag k="name" v="伊豆箱根鉄道大雄山線"/>
    <tag k="name:en" v="Izuhakone Railway Daiyuzan Line"/>
    <tag k="name:ja" v="伊豆箱根鉄道大雄山線"/>
    <tag k="name:ja_rm" v="Izuhakone Tetsudo Daiyūzan-sen"/>
    <tag k="note" v="National-Land Numerical Information (Railway) 2007, MLIT Japan"/>
    <tag k="operator" v="伊豆箱根鉄道"/>
    <tag k="operator:ja" v="伊豆箱根鉄道"/>
    <tag k="railway" v="rail"/>
    <tag k="source" v="KSJ2"/>
    <tag k="usage" v="branch"/>
    <tag k="voltage" v="1500"/>
  </way>
  <way id="882268346">
    <nd ref="264199919"/>
    <nd ref="6632846755"/>
    <nd ref="264199922"/>
    <nd ref="264199921"/>
    <nd ref="264199925"/>
    <nd ref="3267729875"/>
    <nd ref="5455129184"/>
    <tag k="electrified" v="contact_line"/>
    <tag k="frequency" v="0"/>
    <tag k="gauge" v="1067"/>
    <tag k="name" v="伊豆箱根鉄道大雄山線"/>
    <tag k="name:en" v="Izuhakone Railway Daiyuzan Line"/>
    <tag k="name:ja" v="伊豆箱根鉄道大雄山線"/>
    <tag k="name:ja_rm" v="Izuhakone Tetsudo Daiyūzan-sen"/>
    <tag k="note" v="National-Land Numerical Information (Railway) 2007, MLIT Japan"/>
    <tag k="operator" v="伊豆箱根鉄道"/>
    <tag k="operator:ja" v="伊豆箱根鉄道"/>
    <tag k="railway" v="rail"/>
    <tag k="source" v="KSJ2"/>
    <tag k="usage" v="branch"/>
    <tag k="voltage" v="1500"/>
  </way>
  <way id="882268347">
    <nd ref="264199959"/>
    <nd ref="5455129190"/>
    <nd ref="6632847789"/>
    <nd ref="5455129189"/>
    <nd ref="5455129188"/>
    <nd ref="5455129187"/>
    <nd ref="5455129185"/>
    <nd ref="5455129184"/>
    <tag k="electrified" v="contact_line"/>
    <tag k="frequency" v="0"/>
    <tag k="gauge" v="1067"/>
    <tag k="name" v="伊豆箱根鉄道大雄山線"/>
    <tag k="name:en" v="Izuhakone Railway Daiyuzan Line"/>
    <tag k="name:ja" v="伊豆箱根鉄道大雄山線"/>
    <tag k="name:ja_rm" v="Izuhakone Tetsudo Daiyūzan-sen"/>
    <tag k="note" v="National-Land Numerical Information (Railway) 2007, MLIT Japan"/>
    <tag k="oneway" v="yes"/>
    <tag k="operator" v="伊豆箱根鉄道"/>
    <tag k="operator:ja" v="伊豆箱根鉄道"/>
    <tag k="railway" v="rail"/>
    <tag k="source" v="KSJ2"/>
    <tag k="usage" v="branch"/>
    <tag k="voltage" v="1500"/>
  </way>
  <way id="882268350">
    <nd ref="6610667414"/>
    <nd ref="264199942"/>
    <nd ref="6610667741"/>
    <tag k="KSJ2:LIN" v="大雄山線"/>
    <tag k="name" v="伊豆箱根鉄道大雄山線"/>
    <tag k="name:en" v="Izuhakone Railway Daiyuzan Line"/>
    <tag k="name:ja" v="伊豆箱根鉄道大雄山線"/>
    <tag k="name:ja_rm" v="Izuhakone Tetsudo Daiyūzan-sen"/>
    <tag k="note" v="National-Land Numerical Information (Railway) 2007, MLIT Japan"/>
    <tag k="note:ja" v="国土数値情報（鉄道データ）平成19年　国土交通省"/>
    <tag k="operator" v="伊豆箱根鉄道"/>
    <tag k="operator:ja" v="伊豆箱根鉄道"/>
    <tag k="railway" v="rail"/>
    <tag k="usage" v="branch"/>
  </way>

</osm>